NORAD_CAT_ID,OBJECT_NAME,OBJECT_TYPE,EPOCH,MEAN_MOTION,ECCENTRICITY,INCLINATION,RA_OF_ASC_NODE,ARG_OF_PERICENTER,MEAN_ANOMALY,BSTAR,MEAN_MOTION_DOT,MEAN_MOTION_DDOT,TLE_LINE0,TLE_LINE1,TLE_LINE2,SEMIMAJOR_AXIS,PERIOD,APOGEE,PERIGEE,DECAYED
55939.0,STARLINK-5918,PAYLOAD,2023-08-28 21:11:41,14.9833091,0.0003178,69.9985,93.6683,272.4098,87.6697,1.2245e-05,5.3e-07,0.0,0 STARLINK-5918,1 55939U 23037AB  23240.88311480  .00000053  00000-0  12245-4 0  9996,2 55939  69.9985  93.6683 0003178 272.4098  87.6697 14.98330910 25609,6950.19,96.107,574.264,569.846,0.0
55939.0,STARLINK-5918,PAYLOAD,2023-08-29 02:00:05,14.98333803,0.0003111,69.9984,93.1631,270.8377,89.2426,3.2279e-05,2.92e-06,0.0,0 STARLINK-5918,1 55939U 23037AB  23241.08339202  .00000292  00000-0  32279-4 0  9995,2 55939  69.9984  93.1631 0003111 270.8377  89.2426 14.98333803 25977,6950.181,96.107,574.208,569.884,0.0
55939.0,STARLINK-5918,PAYLOAD,2023-08-29 19:37:33,14.98330222,0.0003032,69.9986,91.3115,271.3012,88.78,1.3044e-05,6.3e-07,0.0,0 STARLINK-5918,1 55939U 23037AB  23241.81775428  .00000063  00000-0  13044-4 0  9995,2 55939  69.9986  91.3115 0003032 271.3012  88.7800 14.98330222 25747,6950.192,96.107,574.165,569.95,0.0
55939.0,STARLINK-5918,PAYLOAD,2023-08-30 16:27:18,14.98329113,0.0003061,69.9988,89.1232,270.8378,89.243,7.7898e-06,0.0,0.0,0 STARLINK-5918,1 55939U 23037AB  23242.68563433 -.00000000  00000-0  77898-5 0  9992,2 55939  69.9988  89.1232 0003061 270.8378  89.2430 14.98329113 26210,6950.196,96.107,574.188,569.933,0.0
55939.0,STARLINK-5918,PAYLOAD,2023-09-01 00:29:59,14.98331181,0.0003039,69.9985,85.7566,269.884,90.1971,-4.9061e-06,-1.52e-06,0.0,0 STARLINK-5918,1 55939U 23037AB  23244.02083222 -.00000152  00000-0 -49061-5 0  9995,2 55939  69.9985  85.7566 0003039 269.8840  90.1971 14.98331181 26417,6950.189,96.107,574.166,569.942,0.0
55939.0,STARLINK-5918,PAYLOAD,2023-09-01 06:54:32,14.98333788,0.0003074,69.9983,85.0827,269.9456,90.1351,-0.00010523,-1.349e-05,0.0,0 STARLINK-5918,1 55939U 23037AB  23244.28787209 -.00001349  00000-0 -10523-3 0  9997,2 55939  69.9983  85.0827 0003074 269.9456  90.1351 14.98333788 26115,6950.181,96.107,574.183,569.91,0.0
55939.0,STARLINK-5918,PAYLOAD,2023-09-01 19:43:36,14.98329812,0.0003075,69.9988,83.7361,269.4776,90.6031,-1.4024e-05,-2.6e-06,0.0,0 STARLINK-5918,1 55939U 23037AB  23244.82195312 -.00000260  00000-0 -14024-4 0  9997,2 55939  69.9988  83.7361 0003075 269.4776  90.6031 14.98329812 26190,6950.193,96.107,574.196,569.921,0.0
55939.0,STARLINK-5918,PAYLOAD,2023-09-02 08:32:41,14.98328724,0.0003078,69.9986,82.3892,269.5923,90.4884,1.5857e-05,9.6e-07,0.0,0 STARLINK-5918,1 55939U 23037AB  23245.35603224  .00000096  00000-0  15857-4 0  9992,2 55939  69.9986  82.3892 0003078 269.5923  90.4884 14.98328724 26612,6950.197,96.107,574.201,569.923,0.0
55939.0,STARLINK-5918,PAYLOAD,2023-09-02 13:21:05,14.98327038,0.0003067,69.9987,81.8842,269.6327,90.4481,-2.9468e-06,-1.28e-06,0.0,0 STARLINK-5918,1 55939U 23037AB  23245.55631395 -.00000128  00000-0 -29468-5 0  9996,2 55939  69.9987  81.8842 0003067 269.6327  90.4481 14.98327038 26305,6950.202,96.107,574.199,569.935,0.0
55939.0,STARLINK-5918,PAYLOAD,2023-09-02 19:45:37,14.98328171,0.0003071,69.9991,81.2113,270.3091,89.7716,1.4039e-05,7.4e-07,0.0,0 STARLINK-5918,1 55939U 23037AB  23245.82335313  .00000074  00000-0  14039-4 0  9992,2 55939  69.9991  81.2113 0003071 270.3091  89.7716 14.98328171 26342,6950.199,96.107,574.198,569.929,0.0
55939.0,STARLINK-5918,PAYLOAD,2023-09-03 06:58:33,14.98330299,0.0003068,69.9992,80.0329,270.523,89.5577,3.3528e-05,3.07e-06,0.0,0 STARLINK-5918,1 55939U 23037AB  23246.29067122  .00000307  00000-0  33528-4 0  9997,2 55939  69.9992  80.0329 0003068 270.5230  89.5577 14.98330299 26417,6950.192,96.107,574.189,569.925,0.0
55939.0,STARLINK-5918,PAYLOAD,2023-09-03 22:59:54,14.98334648,0.0003075,69.9994,78.3497,270.7219,89.3588,5.0048e-05,5.04e-06,0.0,0 STARLINK-5918,1 55939U 23037AB  23246.95826687  .00000504  00000-0  50048-4 0  9994,2 55939  69.9994  78.3497 0003075 270.7219  89.3588 14.98334648 26852,6950.179,96.107,574.181,569.906,0.0
55939.0,STARLINK-5918,PAYLOAD,2023-09-04 23:01:55,14.98326453,0.0002997,69.9997,75.825,270.311,89.7706,-2.2888e-05,-3.66e-06,0.0,0 STARLINK-5918,1 55939U 23037AB  23247.95967377 -.00000366  00000-0 -22888-4 0  9996,2 55939  69.9997  75.8250 0002997 270.3110  89.7706 14.98326453 27001,6950.204,96.107,574.152,569.986,0.0
55939.0,STARLINK-5918,PAYLOAD,2023-09-05 11:51:00,14.98331011,0.0002944,70.0004,74.4786,270.4855,89.5967,-3.3192e-05,-4.89e-06,0.0,0 STARLINK-5918,1 55939U 23037AB  23248.49375127 -.00000489  00000-0 -33192-4 0  9998,2 55939  70.0004  74.4786 0002944 270.4855  89.5967 14.98331011 26744,6950.19,96.107,574.101,570.009,0.0
55939.0,STARLINK-5918,PAYLOAD,2023-09-06 11:53:00,14.98328465,0.000301,70.0002,71.9532,271.1779,88.9035,3.4245e-05,3.16e-06,0.0,0 STARLINK-5918,1 55939U 23037AB  23249.49515015  .00000316  00000-0  34245-4 0  9998,2 55939  70.0002  71.9532 0003010 271.1779  88.9035 14.98328465 27234,6950.198,96.107,574.155,569.971,0.0
55939.0,STARLINK-5918,PAYLOAD,2023-09-07 11:55:02,14.98326237,0.0002939,70.0004,69.429,269.284,90.7983,-3.845e-05,-5.52e-06,0.0,0 STARLINK-5918,1 55939U 23037AB  23250.49655395 -.00000552  00000-0 -38450-4 0  9992,2 55939  70.0004  69.4290 0002939 269.2840  90.7983 14.98326237 27042,6950.205,96.107,574.112,570.027,0.0
55939.0,STARLINK-5918,PAYLOAD,2023-09-07 16:43:26,14.98326239,0.0003006,69.9997,68.9225,272.6284,87.4531,-5.6513e-05,-7.67e-06,0.0,0 STARLINK-5918,1 55939U 23037AB  23250.69683493 -.00000767  00000-0 -56513-4 0  9992,2 55939  69.9997  68.9225 0003006 272.6284  87.4531 14.98326239 27413,6950.205,96.107,574.159,569.98,0.0
55939.0,STARLINK-5918,PAYLOAD,2023-09-08 13:33:11,14.98326418,0.0003082,69.9996,66.734,271.1949,88.8857,9.3241e-05,1.02e-05,0.0,0 STARLINK-5918,1 55939U 23037AB  23251.56471074  .00001020  00000-0  93241-4 0  9999,2 55939  69.9996  66.7340 0003082 271.1949  88.8857 14.98326418 27204,6950.204,96.107,574.211,569.927,0.0
55939.0,STARLINK-5918,PAYLOAD,2023-09-08 18:21:35,14.9833147,0.0003136,69.9998,66.2291,271.1376,88.9423,-1.425e-05,-2.63e-06,0.0,0 STARLINK-5918,1 55939U 23037AB  23251.76499017 -.00000263  00000-0 -14250-4 0  9991,2 55939  69.9998  66.2291 0003136 271.1376  88.9423 14.98331470 27574,6950.188,96.107,574.233,569.874,0.0
55939.0,STARLINK-5918,PAYLOAD,2023-09-09 13:35:11,14.98328371,0.0003146,69.9999,64.2094,269.6508,90.4291,1.5293e-05,8.9e-07,0.0,0 STARLINK-5918,1 55939U 23037AB  23252.56611032  .00000089  00000-0  15293-4 0  9995,2 55939  69.9999  64.2094 0003146 269.6508  90.4291 14.98328371 27357,6950.198,96.107,574.249,569.876,0.0
55939.0,STARLINK-5918,PAYLOAD,2023-09-09 18:23:35,14.98331528,0.0003176,70.0003,63.7047,271.5926,88.4869,2.2251e-05,1.72e-06,0.0,0 STARLINK-5918,1 55939U 23037AB  23252.76638826  .00000172  00000-0  22251-4 0  9992,2 55939  70.0003  63.7047 0003176 271.5926  88.4869 14.98331528 27724,6950.188,96.107,574.261,569.846,0.0
55939.0,STARLINK-5918,PAYLOAD,2023-09-10 13:37:12,14.98330897,0.0003035,70.0005,61.6848,270.4104,89.6707,-7.7872e-06,-1.86e-06,0.0,0 STARLINK-5918,1 55939U 23037AB  23253.56750859 -.00000186  00000-0 -77872-5 0  9999,2 55939  70.0005  61.6848 0003035 270.4104  89.6707 14.98330897 27500,6950.19,96.107,574.164,569.946,0.0
55939.0,STARLINK-5918,PAYLOAD,2023-09-10 18:25:36,14.98365532,0.0002461,70.0007,61.1799,273.5341,86.5537,-0.00060978,-7.368e-05,0.0,0 STARLINK-5918,1 55939U 23037AB  23253.76778339 -.00007368  00000-0 -60978-3 0  9990,2 55939  70.0007  61.1799 0002461 273.5341  86.5537 14.98365532 27872,6950.083,96.105,573.658,570.238,0.0
55939.0,STARLINK-5918,PAYLOAD,2023-09-10 21:37:52,14.98381674,0.0002586,70.0007,60.8432,274.7498,85.3366,-0.00089382,-0.00010756,0.0,0 STARLINK-5918,1 55939U 23037AB  23253.90129713 -.00010756  00000-0 -89382-3 0  9997,2 55939  70.0007  60.8432 0002586 274.7498  85.3366 14.98381674 27890,6950.033,96.104,573.695,570.101,0.0
55939.0,STARLINK-5918,PAYLOAD,2023-09-11 04:02:25,14.98330563,0.0003,70.0008,60.1704,268.4807,91.6009,-2.7242e-05,-4.18e-06,0.0,0 STARLINK-5918,1 55939U 23037AB  23254.16834880 -.00000418  00000-0 -27242-4 0  9996,2 55939  70.0008  60.1704 0003000 268.4807  91.6009 14.98330563 27932,6950.191,96.107,574.141,569.971,0.0
55939.0,STARLINK-5918,PAYLOAD,2023-09-11 13:39:13,14.9833128,0.000299,70.0008,59.1606,270.071,90.0107,-2.8113e-05,-4.28e-06,0.0,0 STARLINK-5918,1 55939U 23037AB  23254.56890803 -.00000428  00000-0 -28113-4 0  9996,2 55939  70.0008  59.1606 0002990 270.0710  90.0107 14.98331280 27658,6950.189,96.107,574.132,569.976,0.0
55939.0,STARLINK-5918,PAYLOAD,2023-09-12 04:04:26,14.98336707,0.000301,70.001,57.6456,267.7461,92.3353,-0.00011181,-1.427e-05,0.0,0 STARLINK-5918,1 55939U 23037AB  23255.16974558 -.00001427  00000-0 -11181-3 0  9999,2 55939  70.0010  57.6456 0003010 267.7461  92.3353 14.98336707 28082,6950.172,96.107,574.129,569.945,0.0
55939.0,STARLINK-5918,PAYLOAD,2023-09-12 13:41:14,14.98329191,0.0003093,70.0009,56.6359,270.9577,89.1228,-1.7131e-05,-2.97e-06,0.0,0 STARLINK-5918,1 55939U 23037AB  23255.57030811 -.00000297  00000-0 -17131-4 0  9995,2 55939  70.0009  56.6359 0003093 270.9577  89.1228 14.98329191 27809,6950.195,96.107,574.21,569.911,0.0
55939.0,STARLINK-5918,PAYLOAD,2023-09-12 20:05:46,14.98330366,0.0002923,70.001,55.9626,267.1817,92.9007,2.8025e-05,2.41e-06,0.0,0 STARLINK-5918,1 55939U 23037AB  23255.83734672  .00000241  00000-0  28025-4 0  9991,2 55939  70.0010  55.9626 0002923 267.1817  92.9007 14.98330366 27843,6950.192,96.107,574.088,570.025,0.0
55939.0,STARLINK-5918,PAYLOAD,2023-09-13 10:30:59,14.98331422,0.0003175,70.0006,54.447,271.8066,88.2729,4.1632e-05,4.04e-06,0.0,0 STARLINK-5918,1 55939U 23037AB  23256.43818365  .00000404  00000-0  41632-4 0  9990,2 55939  70.0006  54.4470 0003175 271.8066  88.2729 14.98331422 28278,6950.188,96.107,574.26,569.847,0.0
